[
    {
        "Altitude(m)": 715644.1048852972,
        "Argument of Periapsis(deg)": 0.0011390121186627068,
        "Eccentricity": 0.0,
        "Inclination(deg)": 45.0,
        "Latitude(deg)": -39.750459785971344,
        "Longitude(deg)": -95.86595956058271,
        "Mean Anomaly(deg)": 295.69882166474815,
        "RAAN(deg)": 59.99892480585418,
        "Satellite Name": "Constellation 1 282",
        "Satellite Number": 282,
        "Semi-Major Axis(m)": 7083131.272910544,
        "Time(s)": 19
    },
    {
        "Altitude(m)": 715634.1057722198,
        "Argument of Periapsis(deg)": 0.0011989601249081123,
        "Eccentricity": 0.0,
        "Inclination(deg)": 45.0,
        "Latitude(deg)": -39.726313025466574,
        "Longitude(deg)": -95.79796991739231,
        "Mean Anomaly(deg)": 295.759522804998,
        "RAAN(deg)": 59.99886821668861,
        "Satellite Name": "Constellation 1 282",
        "Satellite Number": 282,
        "Semi-Major Axis(m)": 7083131.272910544,
        "Time(s)": 20
    },
    {
        "Altitude(m)": 715624.0884978465,
        "Argument of Periapsis(deg)": 0.001258908131153518,
        "Eccentricity": 0.0,
        "Inclination(deg)": 45.0,
        "Latitude(deg)": -39.702121402333844,
        "Longitude(deg)": -95.73003046784727,
        "Mean Anomaly(deg)": 295.82022394524785,
        "RAAN(deg)": 59.99881162752303,
        "Satellite Name": "Constellation 1 282",
        "Satellite Number": 282,
        "Semi-Major Axis(m)": 7083131.272910544,
        "Time(s)": 21
    },
    {
        "Altitude(m)": 715614.0530986749,
        "Argument of Periapsis(deg)": 0.0013188561373989236,
        "Eccentricity": 0.0,
        "Inclination(deg)": 45.0,
        "Latitude(deg)": -39.67788498526542,
        "Longitude(deg)": -95.66214139470742,
        "Mean Anomaly(deg)": 295.8809250854978,
        "RAAN(deg)": 59.99875503835746,
        "Satellite Name": "Constellation 1 282",
        "Satellite Number": 282,
        "Semi-Major Axis(m)": 7083131.272910544,
        "Time(s)": 22
    },
    {
        "Altitude(m)": 715603.999611273,
        "Argument of Periapsis(deg)": 0.0013788041436443293,
        "Eccentricity": 0.0,
        "Inclination(deg)": 45.0,
        "Latitude(deg)": -39.65360384295395,
        "Longitude(deg)": -95.59430237600945,
        "Mean Anomaly(deg)": 295.9416262257477,
        "RAAN(deg)": 59.9986984491919,
        "Satellite Name": "Constellation 1 282",
        "Satellite Number": 282,
        "Semi-Major Axis(m)": 7083131.272910544,
        "Time(s)": 23
    },
    {
        "Altitude(m)": 715593.9280722731,
        "Argument of Periapsis(deg)": 0.001438752149889735,
        "Eccentricity": 0.0,
        "Inclination(deg)": 45.0,
        "Latitude(deg)": -39.62927804409122,
        "Longitude(deg)": -95.52651359365153,
        "Mean Anomaly(deg)": 296.0023273659976,
        "RAAN(deg)": 59.99864186002633,
        "Satellite Name": "Constellation 1 282",
        "Satellite Number": 282,
        "Semi-Major Axis(m)": 7083131.272910544,
        "Time(s)": 24
    },
    {
        "Altitude(m)": 715583.8385183623,
        "Argument of Periapsis(deg)": 0.0014987001561351404,
        "Eccentricity": 0.0,
        "Inclination(deg)": 45.0,
        "Latitude(deg)": -39.60490765736791,
        "Longitude(deg)": -95.45877506100506,
        "Mean Anomaly(deg)": 296.06302850624746,
        "RAAN(deg)": 59.99858527086076,
        "Satellite Name": "Constellation 1 282",
        "Satellite Number": 282,
        "Semi-Major Axis(m)": 7083131.272910544,
        "Time(s)": 25
    },
    {
        "Altitude(m)": 715573.7309862988,
        "Argument of Periapsis(deg)": 0.001558648162380546,
        "Eccentricity": 0.0,
        "Inclination(deg)": 45.0,
        "Latitude(deg)": -39.58049275147292,
        "Longitude(deg)": -95.39108679101395,
        "Mean Anomaly(deg)": 296.1237296464974,
        "RAAN(deg)": 59.998528681695184,
        "Satellite Name": "Constellation 1 282",
        "Satellite Number": 282,
        "Semi-Major Axis(m)": 7083131.272910544,
        "Time(s)": 26
    },
    {
        "Altitude(m)": 715563.6055129042,
        "Argument of Periapsis(deg)": 0.0016185961686259519,
        "Eccentricity": 0.0,
        "Inclination(deg)": 45.0,
        "Latitude(deg)": -39.55603339509284,
        "Longitude(deg)": -95.32344879619575,
        "Mean Anomaly(deg)": 296.1844307867473,
        "RAAN(deg)": 59.998472092529624,
        "Satellite Name": "Constellation 1 282",
        "Satellite Number": 282,
        "Semi-Major Axis(m)": 7083131.272910544,
        "Time(s)": 27
    },
    {
        "Altitude(m)": 715553.4621350543,
        "Argument of Periapsis(deg)": 0.0016785441748713573,
        "Eccentricity": 0.0,
        "Inclination(deg)": 45.0,
        "Latitude(deg)": -39.531529656911374,
        "Longitude(deg)": -95.25586108864303,
        "Mean Anomaly(deg)": 296.2451319269972,
        "RAAN(deg)": 59.99841550336405,
        "Satellite Name": "Constellation 1 282",
        "Satellite Number": 282,
        "Semi-Major Axis(m)": 7083131.272910544,
        "Time(s)": 28
    },
    {
        "Altitude(m)": 715543.3008896953,
        "Argument of Periapsis(deg)": 0.001738492181116763,
        "Eccentricity": 0.0,
        "Inclination(deg)": 45.0,
        "Latitude(deg)": -39.5069816056087,
        "Longitude(deg)": -95.18832368002471,
        "Mean Anomaly(deg)": 296.3058330672471,
        "RAAN(deg)": 59.99835891419848,
        "Satellite Name": "Constellation 1 282",
        "Satellite Number": 282,
        "Semi-Major Axis(m)": 7083131.272910544,
        "Time(s)": 29
    },
    {
        "Altitude(m)": 715533.1218138391,
        "Argument of Periapsis(deg)": 0.0017984401873621684,
        "Eccentricity": 0.0,
        "Inclination(deg)": 45.0,
        "Latitude(deg)": -39.48238930986089,
        "Longitude(deg)": -95.12083674968467,
        "Mean Anomaly(deg)": 296.366534207497,
        "RAAN(deg)": 59.9983023250329,
        "Satellite Name": "Constellation 1 282",
        "Satellite Number": 282,
        "Semi-Major Axis(m)": 7083131.272910544,
        "Time(s)": 30
    },
    {
        "Altitude(m)": 715522.924944541,
        "Argument of Periapsis(deg)": 0.0018583881936075745,
        "Eccentricity": 0.0,
        "Inclination(deg)": 45.0,
        "Latitude(deg)": -39.45775283833964,
        "Longitude(deg)": -95.05339997225417,
        "Mean Anomaly(deg)": 296.42723534774694,
        "RAAN(deg)": 59.99824573586735,
        "Satellite Name": "Constellation 1 282",
        "Satellite Number": 282,
        "Semi-Major Axis(m)": 7083131.272910544,
        "Time(s)": 31
    },
    {
        "Altitude(m)": 715512.7103189463,
        "Argument of Periapsis(deg)": 0.0019183361998529795,
        "Eccentricity": 0.0,
        "Inclination(deg)": 45.0,
        "Latitude(deg)": -39.433072259711125,
        "Longitude(deg)": -94.98601352623658,
        "Mean Anomaly(deg)": 296.4879364879968,
        "RAAN(deg)": 59.998189146701776,
        "Satellite Name": "Constellation 1 282",
        "Satellite Number": 282,
        "Semi-Major Axis(m)": 7083131.272910544,
        "Time(s)": 32
    },
    {
        "Altitude(m)": 715502.4779742395,
        "Argument of Periapsis(deg)": 0.0019782842060983856,
        "Eccentricity": 0.0,
        "Inclination(deg)": 45.0,
        "Latitude(deg)": -39.40834764263595,
        "Longitude(deg)": -94.91867742162007,
        "Mean Anomaly(deg)": 296.54863762824664,
        "RAAN(deg)": 59.9981325575362,
        "Satellite Name": "Constellation 1 282",
        "Satellite Number": 282,
        "Semi-Major Axis(m)": 7083131.272910544,
        "Time(s)": 33
    },
    {
        "Altitude(m)": 715492.2279476773,
        "Argument of Periapsis(deg)": 0.0020382322123437906,
        "Eccentricity": 0.0,
        "Inclination(deg)": 45.0,
        "Latitude(deg)": -39.38357905576834,
        "Longitude(deg)": -94.85139166797592,
        "Mean Anomaly(deg)": 296.60933876849657,
        "RAAN(deg)": 59.99807596837063,
        "Satellite Name": "Constellation 1 282",
        "Satellite Number": 282,
        "Semi-Major Axis(m)": 7083131.272910544,
        "Time(s)": 34
    },
    {
        "Altitude(m)": 715481.96027658,
        "Argument of Periapsis(deg)": 0.002098180218589197,
        "Eccentricity": 0.0,
        "Inclination(deg)": 45.0,
        "Latitude(deg)": -39.358766567755644,
        "Longitude(deg)": -94.78415627446002,
        "Mean Anomaly(deg)": 296.6700399087465,
        "RAAN(deg)": 59.99801937920506,
        "Satellite Name": "Constellation 1 282",
        "Satellite Number": 282,
        "Semi-Major Axis(m)": 7083131.272910544,
        "Time(s)": 35
    },
    {
        "Altitude(m)": 715471.6749983226,
        "Argument of Periapsis(deg)": 0.002158128224834602,
        "Eccentricity": 0.0,
        "Inclination(deg)": 45.0,
        "Latitude(deg)": -39.333910247237895,
        "Longitude(deg)": -94.71697124981455,
        "Mean Anomaly(deg)": 296.7307410489964,
        "RAAN(deg)": 59.99796279003949,
        "Satellite Name": "Constellation 1 282",
        "Satellite Number": 282,
        "Semi-Major Axis(m)": 7083131.272910544,
        "Time(s)": 36
    },
    {
        "Altitude(m)": 715461.3721503442,
        "Argument of Periapsis(deg)": 0.002218076231080008,
        "Eccentricity": 0.0,
        "Inclination(deg)": 45.0,
        "Latitude(deg)": -39.30901016284688,
        "Longitude(deg)": -94.64983677046582,
        "Mean Anomaly(deg)": 296.79144218924625,
        "RAAN(deg)": 59.99790620087392,
        "Satellite Name": "Constellation 1 282",
        "Satellite Number": 282,
        "Semi-Major Axis(m)": 7083131.272910544,
        "Time(s)": 37
    }
]